<?xml version="1.0" encoding="UTF-8"?>
<ndm xmlns:xsi="http://www.w3.org/2001/XMLSchema-instance" xsi:noNamespaceSchemaLocation="https://sanaregistry.org/r/ndmxml_unqualified/ndmxml-2.0.0-master-2.0.xsd">
<omm id="CCSDS_OMM_VERS" version="2.0">
<header><CREATION_DATE/><ORIGINATOR/></header><body><segment><metadata><OBJECT_NAME>KUIPER-00049</OBJECT_NAME><OBJECT_ID>2025-134K</OBJECT_ID><CENTER_NAME>EARTH</CENTER_NAME><REF_FRAME>TEME</REF_FRAME><TIME_SYSTEM>UTC</TIME_SYSTEM><MEAN_ELEMENT_THEORY>SGP4</MEAN_ELEMENT_THEORY></metadata><data><meanElements><EPOCH>2025-09-01T14:00:01.999872</EPOCH><MEAN_MOTION>15.30568399</MEAN_MOTION><ECCENTRICITY>.00074839</ECCENTRICITY><INCLINATION>51.8755</INCLINATION><RA_OF_ASC_NODE>352.9308</RA_OF_ASC_NODE><ARG_OF_PERICENTER>10.6755</ARG_OF_PERICENTER><MEAN_ANOMALY>141.5196</MEAN_ANOMALY></meanElements><tleParameters><EPHEMERIS_TYPE>0</EPHEMERIS_TYPE><CLASSIFICATION_TYPE>U</CLASSIFICATION_TYPE><NORAD_CAT_ID>64509</NORAD_CAT_ID><ELEMENT_SET_NO>999</ELEMENT_SET_NO><REV_AT_EPOCH>571</REV_AT_EPOCH><BSTAR>-.29410618E-1</BSTAR><MEAN_MOTION_DOT>-.817282E-2</MEAN_MOTION_DOT><MEAN_MOTION_DDOT>0</MEAN_MOTION_DDOT></tleParameters></data></segment></body></omm>
<omm id="CCSDS_OMM_VERS" version="2.0">
<header><CREATION_DATE/><ORIGINATOR/></header><body><segment><metadata><OBJECT_NAME>KUIPER-00050</OBJECT_NAME><OBJECT_ID>2025-134L</OBJECT_ID><CENTER_NAME>EARTH</CENTER_NAME><REF_FRAME>TEME</REF_FRAME><TIME_SYSTEM>UTC</TIME_SYSTEM><MEAN_ELEMENT_THEORY>SGP4</MEAN_ELEMENT_THEORY></metadata><data><meanElements><EPOCH>2025-09-01T14:00:01.999872</EPOCH><MEAN_MOTION>15.25655930</MEAN_MOTION><ECCENTRICITY>.00079149</ECCENTRICITY><INCLINATION>51.8761</INCLINATION><RA_OF_ASC_NODE>353.4585</RA_OF_ASC_NODE><ARG_OF_PERICENTER>18.6158</ARG_OF_PERICENTER><MEAN_ANOMALY>246.1031</MEAN_ANOMALY></meanElements><tleParameters><EPHEMERIS_TYPE>0</EPHEMERIS_TYPE><CLASSIFICATION_TYPE>U</CLASSIFICATION_TYPE><NORAD_CAT_ID>64510</NORAD_CAT_ID><ELEMENT_SET_NO>999</ELEMENT_SET_NO><REV_AT_EPOCH>587</REV_AT_EPOCH><BSTAR>-.40150897E-1</BSTAR><MEAN_MOTION_DOT>-.959541E-2</MEAN_MOTION_DOT><MEAN_MOTION_DDOT>0</MEAN_MOTION_DDOT></tleParameters></data></segment></body></omm>
<omm id="CCSDS_OMM_VERS" version="2.0">
<header><CREATION_DATE/><ORIGINATOR/></header><body><segment><metadata><OBJECT_NAME>KUIPER-00051</OBJECT_NAME><OBJECT_ID>2025-134M</OBJECT_ID><CENTER_NAME>EARTH</CENTER_NAME><REF_FRAME>TEME</REF_FRAME><TIME_SYSTEM>UTC</TIME_SYSTEM><MEAN_ELEMENT_THEORY>SGP4</MEAN_ELEMENT_THEORY></metadata><data><meanElements><EPOCH>2025-09-01T13:28:29.426016</EPOCH><MEAN_MOTION>15.34443393</MEAN_MOTION><ECCENTRICITY>.00063861</ECCENTRICITY><INCLINATION>51.8766</INCLINATION><RA_OF_ASC_NODE>353.0824</RA_OF_ASC_NODE><ARG_OF_PERICENTER>348.4273</ARG_OF_PERICENTER><MEAN_ANOMALY>11.6564</MEAN_ANOMALY></meanElements><tleParameters><EPHEMERIS_TYPE>0</EPHEMERIS_TYPE><CLASSIFICATION_TYPE>U</CLASSIFICATION_TYPE><NORAD_CAT_ID>64511</NORAD_CAT_ID><ELEMENT_SET_NO>999</ELEMENT_SET_NO><REV_AT_EPOCH>1201</REV_AT_EPOCH><BSTAR>.12187872E-2</BSTAR><MEAN_MOTION_DOT>.41144E-3</MEAN_MOTION_DOT><MEAN_MOTION_DDOT>0</MEAN_MOTION_DDOT></tleParameters></data></segment></body></omm>
<omm id="CCSDS_OMM_VERS" version="2.0">
<header><CREATION_DATE/><ORIGINATOR/></header><body><segment><metadata><OBJECT_NAME>KUIPER-00052</OBJECT_NAME><OBJECT_ID>2025-134N</OBJECT_ID><CENTER_NAME>EARTH</CENTER_NAME><REF_FRAME>TEME</REF_FRAME><TIME_SYSTEM>UTC</TIME_SYSTEM><MEAN_ELEMENT_THEORY>SGP4</MEAN_ELEMENT_THEORY></metadata><data><meanElements><EPOCH>2025-09-01T13:49:27.745248</EPOCH><MEAN_MOTION>15.55899833</MEAN_MOTION><ECCENTRICITY>.00066984</ECCENTRICITY><INCLINATION>51.8769</INCLINATION><RA_OF_ASC_NODE>348.0374</RA_OF_ASC_NODE><ARG_OF_PERICENTER>18.0100</ARG_OF_PERICENTER><MEAN_ANOMALY>342.1131</MEAN_ANOMALY></meanElements><tleParameters><EPHEMERIS_TYPE>0</EPHEMERIS_TYPE><CLASSIFICATION_TYPE>U</CLASSIFICATION_TYPE><NORAD_CAT_ID>64512</NORAD_CAT_ID><ELEMENT_SET_NO>999</ELEMENT_SET_NO><REV_AT_EPOCH>1208</REV_AT_EPOCH><BSTAR>.16665932E-2</BSTAR><MEAN_MOTION_DOT>.119091E-2</MEAN_MOTION_DOT><MEAN_MOTION_DDOT>0</MEAN_MOTION_DDOT></tleParameters></data></segment></body></omm>
<omm id="CCSDS_OMM_VERS" version="2.0">
<header><CREATION_DATE/><ORIGINATOR/></header><body><segment><metadata><OBJECT_NAME>KUIPER-00053</OBJECT_NAME><OBJECT_ID>2025-134P</OBJECT_ID><CENTER_NAME>EARTH</CENTER_NAME><REF_FRAME>TEME</REF_FRAME><TIME_SYSTEM>UTC</TIME_SYSTEM><MEAN_ELEMENT_THEORY>SGP4</MEAN_ELEMENT_THEORY></metadata><data><meanElements><EPOCH>2025-09-01T13:29:23.694720</EPOCH><MEAN_MOTION>15.37487436</MEAN_MOTION><ECCENTRICITY>.00030473</ECCENTRICITY><INCLINATION>51.8793</INCLINATION><RA_OF_ASC_NODE>352.3723</RA_OF_ASC_NODE><ARG_OF_PERICENTER>352.4941</ARG_OF_PERICENTER><MEAN_ANOMALY>7.6000</MEAN_ANOMALY></meanElements><tleParameters><EPHEMERIS_TYPE>0</EPHEMERIS_TYPE><CLASSIFICATION_TYPE>U</CLASSIFICATION_TYPE><NORAD_CAT_ID>64513</NORAD_CAT_ID><ELEMENT_SET_NO>999</ELEMENT_SET_NO><REV_AT_EPOCH>1202</REV_AT_EPOCH><BSTAR>.12403035E-2</BSTAR><MEAN_MOTION_DOT>.46213E-3</MEAN_MOTION_DOT><MEAN_MOTION_DDOT>0</MEAN_MOTION_DDOT></tleParameters></data></segment></body></omm>
<omm id="CCSDS_OMM_VERS" version="2.0">
<header><CREATION_DATE/><ORIGINATOR/></header><body><segment><metadata><OBJECT_NAME>KUIPER-00054</OBJECT_NAME><OBJECT_ID>2025-134Q</OBJECT_ID><CENTER_NAME>EARTH</CENTER_NAME><REF_FRAME>TEME</REF_FRAME><TIME_SYSTEM>UTC</TIME_SYSTEM><MEAN_ELEMENT_THEORY>SGP4</MEAN_ELEMENT_THEORY></metadata><data><meanElements><EPOCH>2025-09-01T13:40:24.643488</EPOCH><MEAN_MOTION>15.37516349</MEAN_MOTION><ECCENTRICITY>.00045669</ECCENTRICITY><INCLINATION>51.8783</INCLINATION><RA_OF_ASC_NODE>352.4173</RA_OF_ASC_NODE><ARG_OF_PERICENTER>0.6824</ARG_OF_PERICENTER><MEAN_ANOMALY>359.4168</MEAN_ANOMALY></meanElements><tleParameters><EPHEMERIS_TYPE>0</EPHEMERIS_TYPE><CLASSIFICATION_TYPE>U</CLASSIFICATION_TYPE><NORAD_CAT_ID>64514</NORAD_CAT_ID><ELEMENT_SET_NO>999</ELEMENT_SET_NO><REV_AT_EPOCH>1202</REV_AT_EPOCH><BSTAR>.15007651E-2</BSTAR><MEAN_MOTION_DOT>.56136E-3</MEAN_MOTION_DOT><MEAN_MOTION_DDOT>0</MEAN_MOTION_DDOT></tleParameters></data></segment></body></omm>
<omm id="CCSDS_OMM_VERS" version="2.0">
<header><CREATION_DATE/><ORIGINATOR/></header><body><segment><metadata><OBJECT_NAME>KUIPER-00055</OBJECT_NAME><OBJECT_ID>2025-134R</OBJECT_ID><CENTER_NAME>EARTH</CENTER_NAME><REF_FRAME>TEME</REF_FRAME><TIME_SYSTEM>UTC</TIME_SYSTEM><MEAN_ELEMENT_THEORY>SGP4</MEAN_ELEMENT_THEORY></metadata><data><meanElements><EPOCH>2025-09-01T12:59:10.179456</EPOCH><MEAN_MOTION>15.37993021</MEAN_MOTION><ECCENTRICITY>.00018984</ECCENTRICITY><INCLINATION>51.8796</INCLINATION><RA_OF_ASC_NODE>352.2396</RA_OF_ASC_NODE><ARG_OF_PERICENTER>346.0964</ARG_OF_PERICENTER><MEAN_ANOMALY>13.9970</MEAN_ANOMALY></meanElements><tleParameters><EPHEMERIS_TYPE>0</EPHEMERIS_TYPE><CLASSIFICATION_TYPE>U</CLASSIFICATION_TYPE><NORAD_CAT_ID>64515</NORAD_CAT_ID><ELEMENT_SET_NO>999</ELEMENT_SET_NO><REV_AT_EPOCH>1202</REV_AT_EPOCH><BSTAR>.21096058E-2</BSTAR><MEAN_MOTION_DOT>.80548E-3</MEAN_MOTION_DOT><MEAN_MOTION_DDOT>0</MEAN_MOTION_DDOT></tleParameters></data></segment></body></omm>
<omm id="CCSDS_OMM_VERS" version="2.0">
<header><CREATION_DATE/><ORIGINATOR/></header><body><segment><metadata><OBJECT_NAME>KUIPER-00056</OBJECT_NAME><OBJECT_ID>2025-134S</OBJECT_ID><CENTER_NAME>EARTH</CENTER_NAME><REF_FRAME>TEME</REF_FRAME><TIME_SYSTEM>UTC</TIME_SYSTEM><MEAN_ELEMENT_THEORY>SGP4</MEAN_ELEMENT_THEORY></metadata><data><meanElements><EPOCH>2025-09-01T12:22:56.113536</EPOCH><MEAN_MOTION>15.37093963</MEAN_MOTION><ECCENTRICITY>.00055137</ECCENTRICITY><INCLINATION>51.8758</INCLINATION><RA_OF_ASC_NODE>352.7933</RA_OF_ASC_NODE><ARG_OF_PERICENTER>357.3350</ARG_OF_PERICENTER><MEAN_ANOMALY>2.7607</MEAN_ANOMALY></meanElements><tleParameters><EPHEMERIS_TYPE>0</EPHEMERIS_TYPE><CLASSIFICATION_TYPE>U</CLASSIFICATION_TYPE><NORAD_CAT_ID>64516</NORAD_CAT_ID><ELEMENT_SET_NO>999</ELEMENT_SET_NO><REV_AT_EPOCH>1201</REV_AT_EPOCH><BSTAR>.23934581E-2</BSTAR><MEAN_MOTION_DOT>.88935E-3</MEAN_MOTION_DOT><MEAN_MOTION_DDOT>0</MEAN_MOTION_DDOT></tleParameters></data></segment></body></omm>
<omm id="CCSDS_OMM_VERS" version="2.0">
<header><CREATION_DATE/><ORIGINATOR/></header><body><segment><metadata><OBJECT_NAME>KUIPER-00057</OBJECT_NAME><OBJECT_ID>2025-134T</OBJECT_ID><CENTER_NAME>EARTH</CENTER_NAME><REF_FRAME>TEME</REF_FRAME><TIME_SYSTEM>UTC</TIME_SYSTEM><MEAN_ELEMENT_THEORY>SGP4</MEAN_ELEMENT_THEORY></metadata><data><meanElements><EPOCH>2025-09-01T14:00:01.999872</EPOCH><MEAN_MOTION>15.23003528</MEAN_MOTION><ECCENTRICITY>.00119294</ECCENTRICITY><INCLINATION>51.8765</INCLINATION><RA_OF_ASC_NODE>353.6189</RA_OF_ASC_NODE><ARG_OF_PERICENTER>359.2488</ARG_OF_PERICENTER><MEAN_ANOMALY>154.9929</MEAN_ANOMALY></meanElements><tleParameters><EPHEMERIS_TYPE>0</EPHEMERIS_TYPE><CLASSIFICATION_TYPE>U</CLASSIFICATION_TYPE><NORAD_CAT_ID>64517</NORAD_CAT_ID><ELEMENT_SET_NO>999</ELEMENT_SET_NO><REV_AT_EPOCH>404</REV_AT_EPOCH><BSTAR>-.26563213E-1</BSTAR><MEAN_MOTION_DOT>-.593833E-2</MEAN_MOTION_DOT><MEAN_MOTION_DDOT>0</MEAN_MOTION_DDOT></tleParameters></data></segment></body></omm>

</ndm>
